SCD 1                   
1 22490U 93009B   25063.85263365  .00000781  00000+0  16325-3 0  9997
2 22490  24.9677 224.6780 0041982 211.5714 265.8409 14.45756344693115
TECHSAT 1B (GO-32)      
1 25397U 98043D   25063.88795981  .00000207  00000+0  10983-3 0  9993
2 25397  98.9606  41.0408 0002236 109.7897 250.3522 14.24265538384528
SCD 2                   
1 25504U 98060A   25064.43112110  .00000709  00000+0  14776-3 0  9992
2 25504  24.9955  82.3124 0016772 209.8186 293.7319 14.45201772392796
DLR-TUBSAT              
1 25757U 99029B   25064.46341673  .00000363  00000+0  10113-3 0  9996
2 25757  98.6255  40.7522 0013845 340.4849  19.5813 14.52203700365315
TERRA                   
1 25994U 99068A   25064.46175503  .00000882  00000+0  19102-3 0  9992
2 25994  98.0118 125.8984 0001005 253.8370 231.5702 14.60513045341297
MAROC-TUBSAT            
1 27004U 01056D   25064.09554772 -.00000006  00000+0  45740-4 0  9991
2 27004  99.7641 227.9483 0019056 264.4492 209.0767 13.70234935161947
AQUA                    
1 27424U 02022A   25064.52934785  .00002143  00000+0  44777-3 0  9996
2 27424  98.3663  21.6695 0001692  56.9167   6.2270 14.60896850214851
IRS-P6 (RESOURCESAT-1)  
1 28051U 03046A   25064.45922257  .00000456  00000+0  16807-3 0  9991
2 28051  98.2559 117.3127 0063573 308.2685 176.5307 14.35892407113281
SHIYAN 1 (SY-1)         
1 28220U 04012A   25064.08000520  .00013562  00000+0  62800-3 0  9998
2 28220  97.9318 110.0577 0007364 209.4285 150.6535 15.20222000139691
AURA                    
1 28376U 04026A   25063.84623541  .00002102  00000+0  44754-3 0  9998
2 28376  98.2836  13.5840 0001469  66.4042 293.7312 14.60039566 97695
IRS-P5 (CARTOSAT-1)     
1 28649U 05017A   25064.11790473  .00002785  00000+0  30084-3 0  9990
2 28649  97.5808 102.7270 0001975 128.3854 231.7541 14.89098540 74035
SINAH 1                 
1 28893U 05043D   25063.95378796  .00000875  00000+0  17794-3 0  9992
2 28893  98.2205 192.4949 0013672 309.0099  50.9885 14.63524291 32114
EROS B                  
1 29079U 06014A   25064.53632037  .00044862  00000+0  15275-2 0  9999
2 29079  97.3369 178.0299 0004169  19.6623 340.4778 15.30257984 47254
RESURS-DK 1             
1 29228U 06021A   25064.51864114  .00003930  00000+0  24692-3 0  9999
2 29228  69.9330 110.0671 0007085 306.6759  53.3754 15.10094683 31768
ARIRANG-2 (KOMPSAT-2)   
1 29268U 06031A   25064.57134362  .00000700  00000+0  14151-3 0  9996
2 29268  97.8436 266.6263 0015705 117.6519 306.9978 14.64148715992985
LAPAN-TUBSAT            
1 29709U 07001A   25064.52848113  .00001380  00000+0  16802-3 0  9995
2 29709  98.1024  49.3450 0010837 271.6400  88.3573 14.85069907981581
HAIYANG-1B              
1 31113U 07010A   25063.88330240  .00000223  00000+0  10050-3 0  9996
2 31113  98.3104  60.2038 0014168 148.4689 211.7346 14.30837593933513
COSMO-SKYMED 1          
1 31598U 07023A   25064.53677787  .00001121  00000+0  14736-3 0  9993
2 31598  97.8912 249.9336 0001399  81.5413 278.5958 14.82156666959916
TERRASAR-X              
1 31698U 07026A   25063.48505265  .00003785  00000+0  18331-3 0  9994
2 31698  97.4464  72.8992 0001811  94.6556 265.4885 15.19155066981911
WORLDVIEW-1 (WV-1)      
1 32060U 07041A   25063.87093712  .00012916  00000+0  52757-3 0  9993
2 32060  97.3861 185.4910 0002374 180.3590 179.7646 15.24514315971432
YAOGAN-3                
1 32289U 07055A   25064.50405239  .00004430  00000+0  48822-3 0  9993
2 32289  97.8651  93.5077 0001662 108.6925 251.4472 14.88023666936152
COSMO-SKYMED 2          
1 32376U 07059A   25064.50299698  .00001164  00000+0  15276-3 0  9992
2 32376  97.8910 249.8922 0001401  85.3110 274.8263 14.82148243932651
RADARSAT-2              
1 32382U 07061A   25064.51289435  .00000153  00000+0  76149-4 0  9995
2 32382  98.5814  73.1236 0001196  89.8746 270.2574 14.29981625899084
CARTOSAT-2A             
1 32783U 08021A   25064.43841546  .00001428  00000+0  20100-3 0  9996
2 32783  97.8291 122.4941 0011600 189.5940 170.5052 14.78769875909615
HUANJING 1A (HJ-1A)     
1 33320U 08041A   25064.55987504  .00002489  00000+0  31816-3 0  9998
2 33320  97.6399  65.1387 0018236 233.2764 126.6775 14.82140799889041
HUANJING 1B (HJ-1B)     
1 33321U 08041B   25064.56430749  .00002183  00000+0  27971-3 0  9992
2 33321  97.6301  69.4516 0035723 281.2070  78.5129 14.81839280889068
GEOEYE 1                
1 33331U 08042A   25064.51939738  .00001017  00000+0  20082-3 0  9992
2 33331  98.1202 139.4594 0005296  90.7675 269.4134 14.64514955881569
THEOS                   
1 33396U 08049A   25064.49603861  .00000112  00000+0  72919-4 0  9994
2 33396  98.6218 130.3117 0001211 103.8570 256.2742 14.20072087851468
COSMO-SKYMED 3          
1 33412U 08054A   25064.47612676  .00005292  00000+0  40410-3 0  9995
2 33412  97.8798 270.2200 0018966  52.6695 307.6253 15.02277168886455
YAOGAN-4                
1 33446U 08061A   25064.40998032  .00002480  00000+0  32183-3 0  9990
2 33446  97.8986 357.9271 0015397 151.5059 208.6999 14.81582217876210
GOSAT (IBUKI)           
1 33492U 09002A   25063.91142337  .00001608  00000+0  29187-3 0  9992
2 33492  98.0516 176.8451 0001387  94.0914 266.0449 14.67558402862638
YAOGAN-6                
1 34839U 09021A   25064.45858099  .00097188  00000+0  63759-3 0  9999
2 34839  97.1985  40.7155 0004874 285.4373  74.6354 15.75446401884168
DEIMOS-1                
1 35681U 09041A   25064.44397230  .00001509  00000+0  23489-3 0  9999
2 35681  97.6915 238.7321 0000112 196.4019 163.7187 14.74341869837796
DUBAISAT-1              
1 35682U 09041B   25064.48171139  .00002789  00000+0  43642-3 0  9996
2 35682  97.9372 200.2338 0011642 132.4579 227.7615 14.73492962836099
OCEANSAT-2              
1 35931U 09051A   25064.52292833 -.00000031  00000+0  41982-5 0  9990
2 35931  98.2359  93.5918 0017005 116.7302 243.5607 13.99572668813776
WORLDVIEW-2 (WV-2)      
1 35946U 09055A   25063.89877313  .00000277  00000+0  10814-3 0  9990
2 35946  98.4818 138.9602 0003782 164.9831 195.1468 14.36981097808220
SMOS                    
1 36036U 09059A   25064.50677321  .00000694  00000+0  23538-3 0  9991
2 36036  98.4421 253.6532 0001480  97.2649 262.8707 14.39720433806152
YAOGAN-7                
1 36110U 09069A   25064.55819887  .00001119  00000+0  16464-3 0  9998
2 36110  98.0704 306.8256 0026237 107.7000 252.7077 14.77187275820465
TANDEM-X                
1 36605U 10030A   25063.48505334  .00003719  00000+0  18017-3 0  9991
2 36605  97.4468  72.9009 0002036  89.4429 270.7039 15.19155193815332
CARTOSAT-2B             
1 36795U 10035A   25064.47450558  .00001371  00000+0  19336-3 0  9990
2 36795  97.8230 121.9731 0010856 270.0134  89.9833 14.78773312790663
YAOGAN-10               
1 36834U 10038A   25064.52801965  .00001453  00000+0  18136-3 0  9993
2 36834  97.9351  86.1781 0001418  97.8304  54.4823 14.83931502787741
COSMO-SKYMED 4          
1 37216U 10060A   25064.51569350  .00001135  00000+0  14907-3 0  9990
2 37216  97.8912 249.9145 0001479  85.1643 274.9739 14.82153552775207
RESOURCESAT-2           
1 37387U 11015A   25064.42020567 -.00000037  00000+0  36394-5 0  9999
2 37387  98.8207 128.6556 0014566 120.1813 240.0809 14.21521815720108
HAIYANG-2A              
1 37781U 11043A   25064.57481841 -.00000003  00000+0  40110-4 0  9993
2 37781  99.3343  69.8603 0001717  97.6103 262.5244 13.78804549682351
RASAT                   
1 37791U 11044D   25064.44310644  .00001263  00000+0  23165-3 0  9991
2 37791  98.0667 157.9403 0019902 235.6527 188.4838 14.67342013724447
SRMSAT                  
1 37841U 11058D   25063.94928072  .00000573  00000+0  16770-3 0  9993
2 37841  19.9732  19.2808 0011893  82.6475 322.9331 14.11376015691444
PLEIADES 1A             
1 38012U 11076F   25064.44528057  .00000736  00000+0  16796-3 0  9998
2 38012  98.1748 141.2131 0001388 107.9480 343.1174 14.58565489703676
ZIYUAN 1-02C (ZY 1-02C) 
1 38038U 11079A   25064.50701873  .00000871  00000+0  30493-3 0  9995
2 38038  98.4637 135.2758 0005378 267.0923 217.5945 14.37587804691909
ZIYUAN 3-1 (ZY 3-1)     
1 38046U 12001A   25064.44521419  .00027435  00000+0  52514-3 0  9992
2 38046  97.2052 129.0562 0001957 274.2634  85.8393 15.48024919731137
ARIRANG-3 (KOMPSAT-3)   
1 38338U 12025B   25064.53514754  .00001127  00000+0  23302-3 0  9999
2 38338  98.2949  17.6041 0008080 125.2107 234.9852 14.62263139682962
EXACTVIEW-1 (ADS-1B)    
1 38709U 12039C   25064.16578134  .00000276  00000+0  13837-3 0  9993
2 38709  98.9456 166.9609 0011893  84.7341 275.5194 14.24748924655910
SPOT 6                  
1 38755U 12047A   25064.51305649  .00000665  00000+0  15283-3 0  9990
2 38755  98.1881 133.9395 0001063  85.0929 275.0392 14.58554897664764
PLEIADES 1B             
1 39019U 12068A   25064.46180806  .00000735  00000+0  16787-3 0  9995
2 39019  98.2032 141.1316 0001324 100.6403 259.4946 14.58585840652526
GOKTURK 2               
1 39030U 12073A   25064.52099732  .00001077  00000+0  16798-3 0  9990
2 39030  97.7224 279.6430 0001984  78.4287 281.7145 14.74793970655440
LANDSAT 8               
1 39084U 13008A   25064.42433613  .00000759  00000+0  17854-3 0  9997
2 39084  98.1964 136.4522 0001249  81.1954 278.9386 14.57112150641450
SARAL                   
1 39086U 13009A   25063.88371697  .00000248  00000+0  10715-3 0  9994
2 39086  98.5528 251.4871 0001204 202.9243 157.1887 14.32671158628407
GAOFEN-1                
1 39150U 13018A   25064.51487798  .00001302  00000+0  19382-3 0  9998
2 39150  97.9585 139.6814 0017284 341.4653  18.5925 14.76511675639127
VNREDSAT 1              
1 39160U 13021B   25064.45568119  .00001240  00000+0  24180-3 0  9996
2 39160  97.9619 129.2603 0001379 105.0552 255.0804 14.64667877631687
ARIRANG-5 (KOMPSAT-5)   
1 39227U 13042A   25064.48156842  .00003596  00000+0  26103-3 0  9995
2 39227  97.6185 252.7245 0001953 311.0209  49.0848 15.04521005633448
SKYSAT-A                
1 39418U 13066C   25063.10954959  .00005369  00000+0  34176-3 0  9995
2 39418  97.4484 121.7324 0024428 133.5547 226.7716 15.08939291617496
